[
    {
        "Altitude(m)": 617710.7035544531,
        "Argument of Periapsis(deg)": 0.0,
        "Eccentricity": 0.0,
        "Inclination(deg)": 60.0,
        "Latitude(deg)": -41.10283311436133,
        "Longitude(deg)": -100.03336575009943,
        "Mean Anomaly(deg)": 310.9091000000001,
        "RAAN(deg)": 30.0,
        "Satellite Name": "Test1 151",
        "Satellite Number": 151,
        "Semi-Major Axis(m)": 6980739.136638005,
        "Time(s)": 0
    },
    {
        "Altitude(m)": 617518.001877212,
        "Argument of Periapsis(deg)": 0.00010418945913296404,
        "Eccentricity": 0.0,
        "Inclination(deg)": 60.0,
        "Latitude(deg)": -40.63704003701631,
        "Longitude(deg)": -99.5365709339589,
        "Mean Anomaly(deg)": 311.5292061454619,
        "RAAN(deg)": 29.99957995086026,
        "Satellite Name": "Test1 151",
        "Satellite Number": 151,
        "Semi-Major Axis(m)": 6980739.136638005,
        "Time(s)": 10
    }
]